[{"OBJECT_NAME":"SCS-01 M","OBJECT_ID":"2025-100M","EPOCH":"2026-03-09T23:50:15.541152","MEAN_MOTION":15.31880861,"ECCENTRICITY":0.00078021,"INCLINATION":97.3725,"RA_OF_ASC_NODE":145.6908,"ARG_OF_PERICENTER":292.3826,"MEAN_ANOMALY":67.6588,"EPHEMERIS_TYPE":0,"CLASSIFICATION_TYPE":"U","NORAD_CAT_ID":63993,"ELEMENT_SET_NO":999,"REV_AT_EPOCH":4565,"BSTAR":0.0012010051,"MEAN_MOTION_DOT":0.00037061,"MEAN_MOTION_DDOT":0},{"OBJECT_NAME":"STARLINK-34852","OBJECT_ID":"2025-237X","EPOCH":"2026-03-09T22:02:16.348128","MEAN_MOTION":15.30224487,"ECCENTRICITY":0.00016283,"INCLINATION":53.1615,"RA_OF_ASC_NODE":38.6972,"ARG_OF_PERICENTER":92.2015,"MEAN_ANOMALY":267.9172,"EPHEMERIS_TYPE":0,"CLASSIFICATION_TYPE":"U","NORAD_CAT_ID":66135,"ELEMENT_SET_NO":999,"REV_AT_EPOCH":2260,"BSTAR":0.0012758117,"MEAN_MOTION_DOT":0.00037647,"MEAN_MOTION_DDOT":0}]
